[{"OBJECT_NAME":"TIANQI-3","OBJECT_ID":"2019-032E","EPOCH":"2026-03-09T17:33:23.759136","MEAN_MOTION":15.35231484,"ECCENTRICITY":0.00047367,"INCLINATION":45.0009,"RA_OF_ASC_NODE":170.4729,"ARG_OF_PERICENTER":128.7336,"MEAN_ANOMALY":231.3974,"EPHEMERIS_TYPE":0,"CLASSIFICATION_TYPE":"U","NORAD_CAT_ID":44314,"ELEMENT_SET_NO":999,"REV_AT_EPOCH":37277,"BSTAR":0.0006563115,"MEAN_MOTION_DOT":0.00022657,"MEAN_MOTION_DDOT":0},{"OBJECT_NAME":"STARLINK-30328","OBJECT_ID":"2023-122G","EPOCH":"2026-03-09T22:00:01.999584","MEAN_MOTION":15.178595,"ECCENTRICITY":0.00012946,"INCLINATION":42.9998,"RA_OF_ASC_NODE":79.434,"ARG_OF_PERICENTER":259.0238,"MEAN_ANOMALY":322.2974,"EPHEMERIS_TYPE":0,"CLASSIFICATION_TYPE":"U","NORAD_CAT_ID":57638,"ELEMENT_SET_NO":999,"REV_AT_EPOCH":567,"BSTAR":0.054710266,"MEAN_MOTION_DOT":0.01234662,"MEAN_MOTION_DDOT":0}]
